{
    "links": {
        "self": "http://www.neowsapp.com/rest/v1/neo/3884024?api_key=iIulBulltgU6a56xZRHN4H3l9WmuAYTsLGpBGhQ2"
    },
    "id": "3884024",
    "neo_reference_id": "3884024",
    "name": "(2019 UN9)",
    "designation": "2019 UN9",
    "nasa_jpl_url": "http://ssd.jpl.nasa.gov/sbdb.cgi?sstr=3884024",
    "absolute_magnitude_h": 24.5,
    "estimated_diameter": {
        "kilometers": {
            "estimated_diameter_min": 0.0334622374,
            "estimated_diameter_max": 0.0748238376
        },
        "meters": {
            "estimated_diameter_min": 33.4622374455,
            "estimated_diameter_max": 74.8238376074
        },
        "miles": {
            "estimated_diameter_min": 0.0207924639,
            "estimated_diameter_max": 0.0464933628
        },
        "feet": {
            "estimated_diameter_min": 109.7842471007,
            "estimated_diameter_max": 245.4850393757
        }
    },
    "is_potentially_hazardous_asteroid": false,
    "close_approach_data": [
        {
            "close_approach_date": "1957-11-12",
            "close_approach_date_full": "1957-Nov-12 10:47",
            "epoch_date_close_approach": -382972380000,
            "relative_velocity": {
                "kilometers_per_second": "5.3672216338",
                "kilometers_per_hour": "19321.9978815521",
                "miles_per_hour": "12005.9380725677"
            },
            "miss_distance": {
                "astronomical": "0.1690031291",
                "lunar": "65.7422172199",
                "kilometers": "25282508.136695017",
                "miles": "15709822.0820125546"
            },
            "orbiting_body": "Earth"
        },
        {
            "close_approach_date": "1980-11-12",
            "close_approach_date_full": "1980-Nov-12 15:06",
            "epoch_date_close_approach": 342889560000,
            "relative_velocity": {
                "kilometers_per_second": "8.8178185505",
                "kilometers_per_hour": "31744.1467817147",
                "miles_per_hour": "19724.5783155604"
            },
            "miss_distance": {
                "astronomical": "0.2866244141",
                "lunar": "111.4968970849",
                "kilometers": "42878401.839357967",
                "miles": "26643403.4319432646"
            },
            "orbiting_body": "Earth"
        },
        {
            "close_approach_date": "2019-11-13",
            "close_approach_date_full": "2019-Nov-13 13:18",
            "epoch_date_close_approach": 1573651080000,
            "relative_velocity": {
                "kilometers_per_second": "5.3519627388",
                "kilometers_per_hour": "19267.0658598152",
                "miles_per_hour": "11971.8054505057"
            },
            "miss_distance": {
                "astronomical": "0.1694493187",
                "lunar": "65.9157849743",
                "kilometers": "25349257.150471169",
                "miles": "15751297.9959093722"
            },
            "orbiting_body": "Earth"
        },
        {
            "close_approach_date": "2042-11-13",
            "close_approach_date_full": "2042-Nov-13 08:01",
            "epoch_date_close_approach": 2299478460000,
            "relative_velocity": {
                "kilometers_per_second": "8.9320328374",
                "kilometers_per_hour": "32155.3182147332",
                "miles_per_hour": "19980.064254038"
            },
            "miss_distance": {
                "astronomical": "0.2882738409",
                "lunar": "112.1385241101",
                "kilometers": "43125152.575358883",
                "miles": "26796727.2295752654"
            },
            "orbiting_body": "Earth"
        },
        {
            "close_approach_date": "2081-11-13",
            "close_approach_date_full": "2081-Nov-13 13:49",
            "epoch_date_close_approach": 3530267340000,
            "relative_velocity": {
                "kilometers_per_second": "5.310512214",
                "kilometers_per_hour": "19117.8439704709",
                "miles_per_hour": "11879.0847715407"
            },
            "miss_distance": {
                "astronomical": "0.1709152531",
                "lunar": "66.4860334559",
                "kilometers": "25568557.814270897",
                "miles": "15887565.1096044986"
            },
            "orbiting_body": "Earth"
        }
    ],
    "orbital_data": {
        "orbit_id": "2",
        "orbit_determination_date": "2019-12-26 05:12:17",
        "first_observation_date": "2019-10-24",
        "last_observation_date": "2019-12-25",
        "data_arc_in_days": 62,
        "observations_used": 20,
        "orbit_uncertainty": "6",
        "minimum_orbit_intersection": ".169803",
        "jupiter_tisserand_invariant": "4.056",
        "epoch_osculation": "2459000.5",
        "eccentricity": ".3572209080983235",
        "semi_major_axis": "1.740378899342267",
        "inclination": "9.16583328883628",
        "ascending_node_longitude": "199.8519839949264",
        "orbital_period": "838.6179243850346",
        "perihelion_distance": "1.118679168484061",
        "perihelion_argument": "230.0099875941861",
        "aphelion_distance": "2.362078630200472",
        "perihelion_time": "2458820.928866646502",
        "mean_anomaly": "77.08588873134877",
        "mean_motion": ".4292777312910298",
        "equinox": "J2000",
        "orbit_class": {
            "orbit_class_type": "AMO",
            "orbit_class_description": "Near-Earth asteroid orbits similar to that of 1221 Amor",
            "orbit_class_range": "1.017 AU < q (perihelion) < 1.3 AU"
        }
    },
    "is_sentry_object": false
}